# From MPEC 2022-S20
C/1995 O1 (Hale-Bopp),e,89.6363,281.9512,130.4151,179.7561,0.0004090,0.99492463,0.0000,03/30.4295/1997,2000,g -2.0,4.0
# From NK 1615
P/1996 R2 (Lagerkvist),e,2.5990,40.0381,333.5096,3.771678,0.1345557,0.31409141,338.3704,01/06.0/2026,2000,g 11.5,4.0
# From MPC 73460
C/1997 BA6 (Spacewatch),e,72.6906,317.7802,286.0819,2935,0.0000062,0.99881991,0.0000,11/15.8514/1999,2000,g 10.0,2.0
# From MPC 75703
P/1998 VS24 (LINEAR),e,5.0301,159.0330,244.9336,4.519602,0.1025779,0.24344525,297.4111,01/06.0/2026,2000,g 13.0,2.0
# From MPC 73461
C/1999 F1 (Catalina),e,91.8637,19.9540,255.3242,20494,0.0000003,0.99971638,0.0000,01/31.1848/2002,2000,g  9.5,2.0
# From MPC186628
C/1999 J2 (Skiff),h,04/09.3249/2000,86.4034,50.2730,126.9692,1.000779,7.071719,2000,2.0,4.0
# From NK 731
P/1999 RO28 (LONEOS),e,7.5672,137.8395,231.3601,3.425253,0.1554766,0.67218606,10.5247,01/06.0/2026,2000,g 20.0,2.0
# From MPC 43758
C/1999 S2 (McNaught-Watson),h,11/07.0672/1997,65.6285,74.4448,223.4755,1.002324,6.503557,2000,2.0,4.0
# From MPC 75704
P/1999 XN120 (Catalina),e,5.0300,285.2383,161.4810,4.190057,0.1149143,0.21287909,1.8464,01/06.0/2026,2000,g 13.5,2.0
# From NK 744
P/2000 R2 (LINEAR),e,11.6793,160.2682,176.5820,3.468285,0.1525921,0.53053821,5.2955,01/06.0/2026,2000,g 18.0,4.0
# From MPC 43019
P/2001 H5 (NEAT),e,8.3727,328.6839,224.5807,6.093320,0.0655274,0.59965057,245.3604,01/06.0/2026,2000,g 12.0,4.0
# From MPC 46619
C/2001 M10 (NEAT),e,27.9944,293.9616,5.6086,26.72198,0.0071351,0.79927437,64.0949,01/06.0/2026,2000,g  8.0,4.0
# From MPEC 2015-N31
C/2002 A1 (LINEAR),e,14.0796,81.0451,18.7187,16.04076,0.0153415,0.70976945,135.0446,01/06.0/2026,2000,g 12.5,2.0
# From MPC 89006
C/2002 A2 (LINEAR),e,14.0336,81.0119,19.1140,15.89577,0.0155518,0.70744121,136.7869,01/06.0/2026,2000,g 11.0,2.0
# From MPC 45962
C/2002 B1 (LINEAR),e,51.0292,58.2661,76.0844,9.874450,0.0317640,0.77051489,275.6850,01/06.0/2026,2000,g 11.5,4.0
# From MPC188408
C/2002 CE10 (LINEAR),e,145.3744,147.5612,126.2398,9.765728,0.0322959,0.78944063,265.7069,01/06.0/2026,2000,g 13.0,2.0
# From MPEC 2023-UR6
P/2002 EJ57 (LINEAR),e,4.9910,330.2199,167.2972,6.454530,0.0601045,0.59416540,165.6200,01/06.0/2026,2000,g 12.5,4.0
# From MPEC 2015-N31
C/2002 L9 (NEAT),h,04/02.7395/2004,68.2218,110.4979,231.5843,1.000488,7.073438,2000,8.5,2.0
# From MPC 75007
C/2002 VQ94 (LINEAR),e,70.6214,35.0542,99.8139,187.4804,0.0003839,0.96399107,2.7902,01/06.0/2026,2000,g  9.5,2.0
# From MPC186628
C/2003 A2 (Gleason),e,8.0711,154.4596,346.5460,7935,0.0000014,0.99856809,0.0000,11/08.3823/2003,2000,g  3.5,4.0
# From MPC 51182
C/2003 E1 (NEAT),e,33.4707,137.1181,103.9264,13.77311,0.0192822,0.76203281,154.6935,01/06.0/2026,2000,g 12.5,2.0
# From MPC 50354
P/2003 F2 (NEAT),e,11.5828,358.9610,193.0978,6.553905,0.0587427,0.53631106,132.0802,01/06.0/2026,2000,g 16.5,2.0
# From unp
P/2003 L1 (Scotti),e,9.0434,225.8361,355.0370,6.693963,0.0569088,0.25185043,114.1039,01/06.0/2026,2000,g  9.5,4.0
# From MPC105235
P/2003 T12 (SOHO),e,11.0206,174.5699,219.8044,2.584250,0.2372478,0.77004652,130.8020,01/06.0/2026,2000,g 17.0,4.0
# From MPC 57131
C/2004 B1 (LINEAR),h,02/07.9199/2006,113.9128,273.3353,328.1237,1.000959,1.602126,2000,10.5,2.0
# From MPC 51368
C/2004 C1 (Larsen),e,28.8625,151.9549,315.9683,11.62433,0.0248686,0.62580256,359.9917,03/19.0/2003,2000,g 13.5,2.0
# From MPEC 2022-YN2
P/2004 FY140 (LINEAR),e,2.1629,327.2625,254.3210,4.968465,0.0889960,0.19289328,323.2845,01/06.0/2026,2000,g 12.5,2.0
# From MPC 53304
P/2004 R3 (LINEAR-NEAT),e,12.8052,305.1238,37.0440,4.744408,0.0953742,0.25489649,150.1479,01/06.0/2026,2000,g 14.5,4.0
# From MPC 53465
C/2004 T3 (Siding Spring),e,71.7741,50.3508,259.8488,45001,0.0000001,0.99980207,0.0000,04/04.4905/2003,2000,g  2.5,4.0
# From MPC 75705
P/2004 V5 (LINEAR-Hill),e,19.3303,47.7355,87.1506,8.054285,0.0431185,0.44953688,335.1406,01/06.0/2026,2000,g  8.0,4.0
# From unp
P/2004 V5-A (LINEAR-Hill),e,19.3337,47.7625,87.1155,8.055123,0.0431118,0.44962124,335.1549,01/06.0/2026,2000,g  8.0,4.0
# From MPC 75705
P/2004 V5-B (LINEAR-Hill),e,19.3305,47.7360,87.1551,8.054491,0.0431168,0.44955120,335.0995,01/06.0/2026,2000,g  8.0,4.0
# From MPC 54164
P/2005 E1 (Tubbiolo),e,4.2606,335.4852,193.9663,7.073544,0.0523900,0.37756755,43.5113,01/06.0/2026,2000,g 10.0,4.0
# From MPC 74246
P/2005 L1 (McNaught),e,10.0431,124.0362,166.2133,3.847056,0.1306205,0.28041306,182.1877,01/06.0/2026,2000,g  9.5,4.0
# From MPC 87062
C/2005 L3 (McNaught),e,139.3142,288.7781,46.9665,4031,0.0000039,0.99861694,0.0000,01/14.4070/2008,2000,g  4.0,4.0
# From MPC 75706
P/2005 S2 (Skiff),e,3.1394,161.3265,230.0739,7.981311,0.0437112,0.19820858,311.1679,01/06.0/2026,2000,g  7.5,4.0
# From MPC 73461
P/2005 T3 (Read),e,6.2335,27.6188,7.1744,7.567740,0.0473429,0.17368282,349.2500,01/06.0/2026,2000,g  9.0,4.0
# From MPC 75707
P/2006 HR30 (Siding Spring),e,31.9658,309.7460,117.5283,7.793845,0.0452977,0.84353237,314.3640,01/06.0/2026,2000,g 11.0,4.0
# From MPEC 2022-L66
C/2006 S3 (LONEOS),h,04/16.5911/2012,166.0456,38.5378,140.1420,1.000685,5.118200,2000,2.0,4.0
# From MPC 84315
C/2007 D1 (LINEAR),e,41.5181,170.9870,339.8114,1302,0.0000210,0.99328932,0.0000,06/16.0577/2007,2000,g  3.5,4.0
# From MPEC 2024-GJ3
P/2007 K2 (Gibbs),e,7.5874,188.3090,347.0404,7.400827,0.0489535,0.68698330,341.1485,01/06.0/2026,2000,g 14.0,4.0
# From MPC 73462
P/2007 S1 (Zhao),e,5.9625,141.3211,245.2851,3.819236,0.1320503,0.33766750,156.8677,01/06.0/2026,2000,g 13.0,4.0
# From MPEC 2024-GJ3
C/2007 S2 (Lemmon),e,16.9208,296.1346,210.1494,12.49217,0.0223227,0.55742601,141.2697,01/06.0/2026,2000,g  6.5,4.0
# From MPEC 2024-GJ3
C/2008 E1 (Catalina),e,34.8637,188.8794,270.4215,10.76361,0.0279105,0.55294073,177.0287,01/06.0/2026,2000,g  7.0,4.0
# From MPC 95207
C/2008 S3 (Boattini),h,06/09.0743/2011,162.7432,55.0218,40.1971,1.001832,8.056524,2000,4.0,4.0
# From MPC 75710
P/2008 Y3 (McNaught),e,38.7803,262.8276,238.1904,8.033930,0.0432825,0.44861478,269.1689,01/06.0/2026,2000,g  8.5,4.0
# From MPC 75710
P/2009 B1 (Boattini),e,22.2597,297.1089,129.0259,6.721737,0.0565564,0.63580392,350.0744,01/06.0/2026,2000,g 13.0,4.0
# From MPC 95208
C/2009 F4 (McNaught),e,79.2009,53.5036,260.5034,24827,0.0000003,0.99977938,0.0000,12/25.5962/2011,2000,g  3.0,4.0
# From MPC103843
C/2009 P1 (Garradd),e,106.2287,325.8546,90.4519,10636,0.0000009,0.99985534,0.0000,12/24.3926/2011,2000,g  4.0,4.0
# From MPC 68902
P/2009 Q5 (McNaught),e,40.9480,160.1835,209.2007,7.427230,0.0486927,0.60910324,289.7590,01/06.0/2026,2000,g 10.0,4.0
# From MPC105235
P/2009 WX51 (Catalina),e,9.5982,31.5215,118.2946,3.082839,0.1820865,0.73974945,341.9637,01/06.0/2026,2000,g 19.0,2.0
# From MPC 74247
P/2009 Y2 (Kowalski),e,29.9725,262.0778,172.2752,6.534484,0.0590048,0.63729588,340.5397,01/06.0/2026,2000,g 13.0,4.0
# From MPC 75008
P/2010 C1 (Scotti),e,9.1158,141.5834,2.8768,7.133409,0.0517319,0.26445829,308.8484,01/06.0/2026,2000,g  9.5,4.0
# From MPC 75008
P/2010 D2 (WISE),e,57.1396,319.8797,120.0578,6.713230,0.0566639,0.45154969,328.8495,01/06.0/2026,2000,g 16.0,4.0
# From MPC 72851
P/2010 H2 (Vales),e,14.2782,64.1895,128.0740,3.835284,0.1312223,0.19797416,39.6554,01/06.0/2026,2000,g  6.0,4.0
# From MPC 70361
P/2010 H3 (SOHO),e,23.1403,77.1683,26.0881,3.034594,0.1864460,0.98558082,0.0000,05/25.2480/2026,2000,g 20.0,2.0
# From MPEC 2024-GJ3
P/2010 H4 (Scotti),e,2.3177,44.7488,179.0794,6.620068,0.0578643,0.26741396,331.0384,01/06.0/2026,2000,g 10.5,4.0
# From MPC 74637
P/2010 H5 (Scotti),e,14.0524,24.3881,175.4011,7.168100,0.0513568,0.15645715,296.5713,01/06.0/2026,2000,g 13.0,2.0
# From MPC 84315
P/2010 JC81 (WISE),e,38.7402,30.8334,12.5229,8.103122,0.0427293,0.77786242,228.9755,01/06.0/2026,2000,g  9.0,4.0
# From MPC 83518
C/2010 L3 (Catalina),e,102.6456,38.3219,121.7540,37945,0.0000001,0.99973993,0.0000,11/12.5103/2010,2000,g  4.5,4.0
# From MPC115879
C/2010 S1 (LINEAR),h,05/20.3851/2013,125.4397,93.6711,118.7210,1.000701,5.909049,2000,3.5,4.0
# From MPC 74248
P/2010 T2 (PANSTARRS),e,7.8527,57.7001,349.8567,5.568924,0.0749976,0.32446749,51.4012,01/06.0/2026,2000,g 11.5,4.0
# From MPEC 2023-J95
C/2010 U3 (Boattini),h,02/28.8184/2019,55.5293,42.9946,88.1097,1.000198,8.440870,2000,1.0,4.0
# From MPC 79021
P/2010 UH55 (Spacewatch),e,8.0378,232.7960,225.3745,6.645390,0.0575338,0.56466892,309.4611,01/06.0/2026,2000,g 11.0,4.0
# From MPC 84021
P/2011 C2 (Gibbs),e,10.8982,11.9673,160.3181,7.406139,0.0489008,0.27169667,251.4941,01/06.0/2026,2000,g  9.0,4.0
# From MPC 89309
C/2011 F1 (LINEAR),e,56.3830,85.1967,192.6041,3791,0.0000042,0.99951524,0.0000,01/01.7872/2013,2000,g  5.0,4.0
# From MPC 79866
P/2011 FR143 (Lemmon),e,15.9611,190.8424,349.6075,6.886421,0.0545398,0.45295857,298.8357,01/06.0/2026,2000,g 14.0,2.0
# From MPC106343
C/2011 J2 (LINEAR),h,12/20.4122/2013,122.7915,164.0514,85.4776,1.000297,3.459903,2000,5.5,3.6
# From MPC 82317
P/2011 JB15 (Spacewatch-Boattini),e,19.1272,153.5835,110.6127,7.382359,0.0491373,0.31518632,252.1999,01/06.0/2026,2000,g  9.0,4.0
# From MPEC 2023-J95
C/2011 KP36 (Spacewatch),e,18.9564,173.4033,180.9706,39.38700,0.0039873,0.87494694,14.0078,01/06.0/2026,2000,g  4.5,4.0
# From MPC 87913
P/2011 N1 (ASH),e,35.7829,77.6249,330.5200,6.231430,0.0633611,0.54532700,314.1190,01/06.0/2026,2000,g 11.5,4.0
# From MPEC 2022-ED3
P/2011 P1 (McNaught),e,5.6502,4.2438,349.1366,7.463907,0.0483342,0.32603338,272.4709,01/06.0/2026,2000,g  9.0,4.0
# From MPC107047
C/2011 P2 (PANSTARRS),e,8.9825,203.9267,76.2129,9.765855,0.0322952,0.36526848,181.6686,01/06.0/2026,2000,g  8.5,4.0
# From MPEC 2022-HC2
P/2011 S1 (Gibbs),e,2.6876,218.8978,193.0340,8.600543,0.0390765,0.20047753,162.2800,01/06.0/2026,2000,g  8.0,4.0
# From MPEC 2023-UR6
P/2011 V1 (Boattini),e,7.3823,46.4908,269.5913,3.858206,0.1300547,0.54838217,346.0160,01/06.0/2026,2000,g 15.5,4.0
# From MPC 82718
P/2011 W1 (PANSTARRS),e,3.7158,161.7925,283.1033,4.675668,0.0974852,0.28829919,139.0509,01/06.0/2026,2000,g 11.5,4.0
# From MPC 79342
